ADRAS-J                 
1 58992U 24034A   24186.92510777  .00004380  00000+0  40662-3 0  9990
2 58992  98.2117 160.7502 0043425 352.6273   7.4302 14.94263970 20519
